STARLINK-32574          
1 61954U 24209R   26068.50244022  .00038140  00000+0  12955-2 0  9992
2 61954  53.1579 143.5983 0001397  64.0304 296.0841 15.30145109 74883
TEVEL2-8                
1 63239U 25052AF  26068.66815442  .00019130  00000+0  69304-3 0  9993
2 63239  97.4055 324.2923 0008031 124.9191 235.2804 15.28392908 54807
