[{"OBJECT_NAME":"STARLINK-32574","OBJECT_ID":"2024-209R","EPOCH":"2026-03-09T12:03:30.835008","MEAN_MOTION":15.30145109,"ECCENTRICITY":0.00013976,"INCLINATION":53.1579,"RA_OF_ASC_NODE":143.5983,"ARG_OF_PERICENTER":64.0304,"MEAN_ANOMALY":296.0841,"EPHEMERIS_TYPE":0,"CLASSIFICATION_TYPE":"U","NORAD_CAT_ID":61954,"ELEMENT_SET_NO":999,"REV_AT_EPOCH":7488,"BSTAR":0.0012954537,"MEAN_MOTION_DOT":0.0003814,"MEAN_MOTION_DDOT":0},{"OBJECT_NAME":"TEVEL2-8","OBJECT_ID":"2025-052AF","EPOCH":"2026-03-09T16:02:08.542752","MEAN_MOTION":15.28392908,"ECCENTRICITY":0.0008031,"INCLINATION":97.4055,"RA_OF_ASC_NODE":324.2923,"ARG_OF_PERICENTER":124.9191,"MEAN_ANOMALY":235.2804,"EPHEMERIS_TYPE":0,"CLASSIFICATION_TYPE":"U","NORAD_CAT_ID":63239,"ELEMENT_SET_NO":999,"REV_AT_EPOCH":5480,"BSTAR":0.00069303947,"MEAN_MOTION_DOT":0.0001913,"MEAN_MOTION_DDOT":0}]
